STARLINK-1732_new
1 16584C 20070BE  21326.15227280  .00001651  00000-0  11060-3 0  3265
2 16584  53.0538 358.0503 0001688  51.6411 226.8422 15.06406803    18
STARLINK-1732_old
1 26584C 20070BE  21325.17745554  .00000455  00000-0  30508-4 0  3254
2 26584  53.0535   2.4267 0001617  52.8391 336.2592 15.06395046    14
